25042,IRIDIUM 39,1997,99.37,-1.0,-,86.39,Inactive,0,LEO,USA,USA,Unknown,Unknown,Unknown,1 25042U 97069D   25118.82850284  .00001437  00000+0  37155-3 0  9996,2 25042  86.3932 232.2762 0020020 110.2108 250.1251 14.49153041441813,14.49153041,0.002002,LEO
25077,IRIDIUM 42,1997,100.26,-1.0,-,86.39,Inactive,0,LEO,PRC,USA,Unknown,Unknown,Unknown,1 25077U 97077A   25118.85165870  .00000884  00000+0  29600-3 0  9997,2 25077  86.3935 260.0177 0001401  91.4159 268.7199 14.36306941434117,14.36306941,0.0001401,LEO
25078,IRIDIUM 44,1997,99.99,-1.0,-,86.4,Inactive,0,LEO,PRC,USA,Unknown,Unknown,Unknown,1 25078U 97077B   25118.80027853  .00000873  00000+0  27002-3 0  9993,2 25078  86.3963 242.0848 0002706 138.4911 221.6493 14.40197069436594,14.40197069,0.0002706,LEO
25104,IRIDIUM 45,1997,94.72,-1.0,-,86.36,Inactive,0,LEO,USA,USA,Unknown,Unknown,Unknown,1 25104U 97082A   25118.85850288  .00023958  00000+0  89503-3 0  9993,2 25104  86.3590  71.8060 0122635 154.7594 205.9713 15.20352768444548,15.20352768,0.0122635,LEO
25105,IRIDIUM 24,1997,99.86,-1.0,-,86.39,Inactive,0,LEO,USA,USA,Unknown,Unknown,Unknown,1 25105U 97082B   25118.90614211  .00001006  00000+0  30037-3 0  9992,2 25105  86.3864 101.2072 0009366 234.7381 125.2943 14.42042635436117,14.42042635,0.0009366,LEO
